{
  "type": "FeatureCollection",
  "name": "urjayukti_bengaluru_zones",
  "metadata": {
    "project": "UrjaYukti AI",
    "description": "6 EV charging demand zones for BESCOM Bengaluru — UrjaYukti AI hackathon",
    "crs": "EPSG:4326",
    "generated": "2026-05-05",
    "note": "Boundaries are approximate ward-level polygons based on known locality extents. For production use, cross-validate against BBMP ward shapefiles."
  },
  "features": [
    {
      "type": "Feature",
      "properties": {
        "id": "whitefield",
        "name": "Whitefield",
        "zone_id": "Z7",
        "risk": "CRITICAL",
        "risk_color": "#F43F5E",
        "load_pct": 92,
        "headroom_pct": 8,
        "ev_density": 94,
        "growth_pct": 28,
        "mcda_score": 94,
        "transformer_id": "T-07",
        "feeder": "Whitefield 110kV",
        "vpp_shift_kwh": 340,
        "peak_window": "20:00–22:00",
        "shift_window": "00:00–02:00",
        "recommendation": "Shift 340 kWh · 20:00–22:00 → 00:00–02:00 · Peak reduction 18.3%",
        "mapbox_zoom": 13.5,
        "center_lng": 77.7480,
        "center_lat": 12.9698
      },
      "geometry": {
        "type": "Polygon",
        "coordinates": [[
          [77.7082, 12.9978],
          [77.7181, 12.9990],
          [77.7310, 12.9985],
          [77.7430, 12.9960],
          [77.7552, 12.9930],
          [77.7660, 12.9880],
          [77.7740, 12.9820],
          [77.7780, 12.9740],
          [77.7790, 12.9650],
          [77.7760, 12.9550],
          [77.7700, 12.9460],
          [77.7620, 12.9390],
          [77.7520, 12.9350],
          [77.7400, 12.9330],
          [77.7280, 12.9340],
          [77.7170, 12.9370],
          [77.7070, 12.9420],
          [77.6990, 12.9490],
          [77.6960, 12.9580],
          [77.6970, 12.9670],
          [77.7010, 12.9760],
          [77.7060, 12.9840],
          [77.7040, 12.9920],
          [77.7082, 12.9978]
        ]]
      }
    },
    {
      "type": "Feature",
      "properties": {
        "id": "hsr-layout",
        "name": "HSR Layout",
        "zone_id": "Z3",
        "risk": "HIGH",
        "risk_color": "#F59E0B",
        "load_pct": 78,
        "headroom_pct": 22,
        "ev_density": 76,
        "growth_pct": 22,
        "mcda_score": 81,
        "transformer_id": "T-03",
        "feeder": "HSR 66kV",
        "vpp_shift_kwh": 220,
        "peak_window": "21:00–23:00",
        "shift_window": "23:00–01:00",
        "recommendation": "Defer 220 kWh to 23:00–01:00 window · 12% PLI reduction",
        "mapbox_zoom": 14.0,
        "center_lng": 77.6398,
        "center_lat": 12.9116
      },
      "geometry": {
        "type": "Polygon",
        "coordinates": [[
          [77.6180, 12.9340],
          [77.6270, 12.9360],
          [77.6360, 12.9360],
          [77.6460, 12.9340],
          [77.6540, 12.9300],
          [77.6600, 12.9240],
          [77.6620, 12.9160],
          [77.6620, 12.9070],
          [77.6590, 12.8990],
          [77.6530, 12.8920],
          [77.6440, 12.8870],
          [77.6340, 12.8850],
          [77.6240, 12.8860],
          [77.6150, 12.8900],
          [77.6080, 12.8960],
          [77.6050, 12.9040],
          [77.6050, 12.9120],
          [77.6080, 12.9200],
          [77.6130, 12.9270],
          [77.6180, 12.9340]
        ]]
      }
    },
    {
      "type": "Feature",
      "properties": {
        "id": "indiranagar",
        "name": "Indiranagar",
        "zone_id": "Z1",
        "risk": "MODERATE",
        "risk_color": "#0891B2",
        "load_pct": 71,
        "headroom_pct": 29,
        "ev_density": 68,
        "growth_pct": 18,
        "mcda_score": 75,
        "transformer_id": "T-01",
        "feeder": "Indiranagar 66kV",
        "vpp_shift_kwh": 180,
        "peak_window": "20:00–22:00",
        "shift_window": "22:00–00:00",
        "recommendation": "Partial shift · 180 kWh to 22:00–00:00 · 9% PLI reduction",
        "mapbox_zoom": 14.5,
        "center_lng": 77.6413,
        "center_lat": 12.9784
      },
      "geometry": {
        "type": "Polygon",
        "coordinates": [[
          [77.6230, 13.0000],
          [77.6340, 13.0010],
          [77.6450, 12.9995],
          [77.6540, 12.9960],
          [77.6600, 12.9900],
          [77.6620, 12.9820],
          [77.6600, 12.9740],
          [77.6550, 12.9670],
          [77.6470, 12.9620],
          [77.6370, 12.9600],
          [77.6270, 12.9610],
          [77.6180, 12.9650],
          [77.6120, 12.9710],
          [77.6100, 12.9790],
          [77.6120, 12.9870],
          [77.6170, 12.9940],
          [77.6230, 13.0000]
        ]]
      }
    },
    {
      "type": "Feature",
      "properties": {
        "id": "koramangala",
        "name": "Koramangala",
        "zone_id": "Z9",
        "risk": "MODERATE",
        "risk_color": "#0891B2",
        "load_pct": 65,
        "headroom_pct": 35,
        "ev_density": 58,
        "growth_pct": 15,
        "mcda_score": 68,
        "transformer_id": "T-09",
        "feeder": "Koramangala 66kV",
        "vpp_shift_kwh": 0,
        "peak_window": "N/A",
        "shift_window": "22:00–05:00",
        "recommendation": "Headroom sufficient · Opportunity charging 22:00–05:00 recommended",
        "mapbox_zoom": 14.0,
        "center_lng": 77.6245,
        "center_lat": 12.9352
      },
      "geometry": {
        "type": "Polygon",
        "coordinates": [[
          [77.6050, 12.9560],
          [77.6130, 12.9580],
          [77.6220, 12.9590],
          [77.6320, 12.9580],
          [77.6410, 12.9550],
          [77.6470, 12.9490],
          [77.6490, 12.9410],
          [77.6470, 12.9330],
          [77.6410, 12.9260],
          [77.6330, 12.9210],
          [77.6230, 12.9190],
          [77.6130, 12.9200],
          [77.6050, 12.9240],
          [77.5990, 12.9310],
          [77.5980, 12.9390],
          [77.6000, 12.9470],
          [77.6050, 12.9560]
        ]]
      }
    },
    {
      "type": "Feature",
      "properties": {
        "id": "electronic-city",
        "name": "Electronic City",
        "zone_id": "Z11",
        "risk": "LOW",
        "risk_color": "#10B981",
        "load_pct": 58,
        "headroom_pct": 42,
        "ev_density": 52,
        "growth_pct": 31,
        "mcda_score": 71,
        "transformer_id": "T-11",
        "feeder": "Electronic City 110kV",
        "vpp_shift_kwh": 0,
        "peak_window": "N/A",
        "shift_window": "Off-peak",
        "recommendation": "Highest growth +31% · Fast-charger deployment at SEZ Phase II · Priority site",
        "mapbox_zoom": 13.5,
        "center_lng": 77.6698,
        "center_lat": 12.8452
      },
      "geometry": {
        "type": "Polygon",
        "coordinates": [[
          [77.6360, 12.8820],
          [77.6480, 12.8840],
          [77.6600, 12.8830],
          [77.6720, 12.8800],
          [77.6830, 12.8740],
          [77.6910, 12.8660],
          [77.6950, 12.8560],
          [77.6950, 12.8450],
          [77.6920, 12.8340],
          [77.6860, 12.8240],
          [77.6770, 12.8160],
          [77.6660, 12.8110],
          [77.6540, 12.8090],
          [77.6420, 12.8100],
          [77.6310, 12.8140],
          [77.6220, 12.8210],
          [77.6160, 12.8310],
          [77.6140, 12.8420],
          [77.6160, 12.8530],
          [77.6220, 12.8630],
          [77.6300, 12.8720],
          [77.6360, 12.8820]
        ]]
      }
    },
    {
      "type": "Feature",
      "properties": {
        "id": "marathahalli",
        "name": "Marathahalli",
        "zone_id": "Z5",
        "risk": "LOW",
        "risk_color": "#10B981",
        "load_pct": 52,
        "headroom_pct": 48,
        "ev_density": 44,
        "growth_pct": 19,
        "mcda_score": 63,
        "transformer_id": "T-05",
        "feeder": "Marathahalli 66kV",
        "vpp_shift_kwh": 0,
        "peak_window": "N/A",
        "shift_window": "Off-peak",
        "recommendation": "Adequate headroom · Mixed AC/DC station at ORR junction · MCDA score 63/100",
        "mapbox_zoom": 14.0,
        "center_lng": 77.7022,
        "center_lat": 12.9591
      },
      "geometry": {
        "type": "Polygon",
        "coordinates": [[
          [77.6820, 12.9820],
          [77.6920, 12.9840],
          [77.7020, 12.9840],
          [77.7120, 12.9810],
          [77.7200, 12.9760],
          [77.7250, 12.9690],
          [77.7260, 12.9600],
          [77.7230, 12.9510],
          [77.7170, 12.9430],
          [77.7080, 12.9380],
          [77.6970, 12.9360],
          [77.6860, 12.9370],
          [77.6770, 12.9410],
          [77.6710, 12.9480],
          [77.6690, 12.9570],
          [77.6710, 12.9660],
          [77.6760, 12.9740],
          [77.6820, 12.9820]
        ]]
      }
    }
  ]
}
