{
  "type": "FeatureCollection",
  "features": [
    {
      "type": "Feature",
      "geometry": {
        "type": "Polygon",
        "coordinates": [
          [
            [
              77.7309876,
              12.9561683
            ],
            [
              77.7365977,
              12.9569805
            ],
            [
              77.7358629,
              12.9556093
            ],
            [
              77.7360181,
              12.9535764
            ],
            [
              77.7381494,
              12.9521427
            ],
            [
              77.7429914,
              12.9538235
            ],
            [
              77.7443147,
              12.9563952
            ],
            [
              77.7467327,
              12.958389
            ],
            [
              77.7502836,
              12.9590825
            ],
            [
              77.7503354,
              12.9613972
            ],
            [
              77.7514239,
              12.9613981
            ],
            [
              77.7517538,
              12.9638746
            ],
            [
              77.7490988,
              12.9631003
            ],
            [
              77.7507496,
              12.9682928
            ],
            [
              77.7513939,
              12.9718219
            ],
            [
              77.7537997,
              12.9714389
            ],
            [
              77.7536308,
              12.9705063
            ],
            [
              77.7581169,
              12.9689065
            ],
            [
              77.7634125,
              12.9675545
            ],
            [
              77.7639692,
              12.9681975
            ],
            [
              77.7636834,
              12.9710368
            ],
            [
              77.7639151,
              12.9737065
            ],
            [
              77.7646485,
              12.9761668
            ],
            [
              77.7630008,
              12.9753876
            ],
            [
              77.7607557,
              12.9757658
            ],
            [
              77.7582926,
              12.9766405
            ],
            [
              77.7563172,
              12.9767407
            ],
            [
              77.7547036,
              12.9754557
            ],
            [
              77.7533647,
              12.9733039
            ],
            [
              77.7504609,
              12.9739171
            ],
            [
              77.7502823,
              12.9721685
            ],
            [
              77.7488098,
              12.9730846
            ],
            [
              77.7472778,
              12.973332
            ],
            [
              77.7461555,
              12.9753339
            ],
            [
              77.7434543,
              12.9754551
            ],
            [
              77.7413267,
              12.9760401
            ],
            [
              77.7408571,
              12.9742747
            ],
            [
              77.7399884,
              12.9737136
            ],
            [
              77.7386204,
              12.9712859
            ],
            [
              77.7389141,
              12.9691834
            ],
            [
              77.7356115,
              12.9693462
            ],
            [
              77.7338589,
              12.9673236
            ],
            [
              77.7329642,
              12.9622482
            ],
            [
              77.7309876,
              12.9561683
            ]
          ]
        ]
      },
      "properties": {
        "bbox_west": 77.7309876,
        "bbox_south": 12.9515328,
        "bbox_east": 77.7646485,
        "bbox_north": 12.9767407,
        "place_id": 423716348,
        "osm_type": "relation",
        "osm_id": 19883364,
        "lat": 12.9696365,
        "lon": 77.7497448,
        "class": "boundary",
        "type": "administrative",
        "place_rank": 20,
        "importance": 0.21080589711721126,
        "addresstype": "suburb",
        "name": "Whitefield, Bengaluru",
        "display_name": "Whitefield, Bengaluru East City Corporation, Bengaluru, Bangalore East, Bengaluru Urban, Karnataka, India",
        "id": "whitefield",
        "zoneId": "Z7",
        "risk": "CRITICAL",
        "risk_color": "#F43F5E",
        "load": 92,
        "headroom": 8,
        "evDensity": 94,
        "growth": 28,
        "score": 94,
        "fillColor": "#F43F5E",
        "lineColor": "#F43F5E"
      },
      "id": "0"
    },
    {
      "type": "Feature",
      "geometry": {
        "type": "Polygon",
        "coordinates": [
          [
            [
              77.6236224,
              12.9169694
            ],
            [
              77.6236439,
              12.9164386
            ],
            [
              77.6268625,
              12.9108334
            ],
            [
              77.625508,
              12.908478
            ],
            [
              77.62847,
              12.908106
            ],
            [
              77.629262,
              12.906816
            ],
            [
              77.632833,
              12.906656
            ],
            [
              77.635416,
              12.907387
            ],
            [
              77.638573,
              12.905859
            ],
            [
              77.645825,
              12.904276
            ],
            [
              77.64446,
              12.907142
            ],
            [
              77.649072,
              12.906033
            ],
            [
              77.648623,
              12.901201
            ],
            [
              77.65228,
              12.902747
            ],
            [
              77.653871,
              12.902532
            ],
            [
              77.655198,
              12.903526
            ],
            [
              77.656653,
              12.909006
            ],
            [
              77.659615,
              12.910046
            ],
            [
              77.660288,
              12.9107
            ],
            [
              77.661076,
              12.913632
            ],
            [
              77.659035,
              12.917633
            ],
            [
              77.655173,
              12.921709
            ],
            [
              77.654986,
              12.923561
            ],
            [
              77.649748,
              12.924838
            ],
            [
              77.644898,
              12.924697
            ],
            [
              77.641341,
              12.92364
            ],
            [
              77.639936,
              12.924304
            ],
            [
              77.63716,
              12.923488
            ],
            [
              77.634023,
              12.923916
            ],
            [
              77.633843,
              12.922181
            ],
            [
              77.634465,
              12.920775
            ],
            [
              77.634157,
              12.919249
            ],
            [
              77.632425,
              12.919742
            ],
            [
              77.631797,
              12.916869
            ],
            [
              77.630199,
              12.916528
            ],
            [
              77.628307,
              12.9169
            ],
            [
              77.6285543,
              12.918014
            ],
            [
              77.624031,
              12.919115
            ],
            [
              77.6236224,
              12.9169694
            ]
          ]
        ]
      },
      "properties": {
        "bbox_west": 77.6236224,
        "bbox_south": 12.901132,
        "bbox_east": 77.661076,
        "bbox_north": 12.926266,
        "place_id": 233493941,
        "osm_type": "relation",
        "osm_id": 17168010,
        "lat": 12.9116225,
        "lon": 77.6388622,
        "class": "place",
        "type": "suburb",
        "place_rank": 19,
        "importance": 0.14673761120012202,
        "addresstype": "suburb",
        "name": "HSR Layout, Bengaluru",
        "display_name": "HSR Layout, Bengaluru South City Corporation, Bengaluru, Bangalore South, Bengaluru Urban, Karnataka, India",
        "id": "hsr-layout",
        "zoneId": "Z3",
        "risk": "HIGH",
        "risk_color": "#F59E0B",
        "load": 78,
        "headroom": 22,
        "evDensity": 76,
        "growth": 22,
        "score": 81,
        "fillColor": "#F59E0B",
        "lineColor": "#F59E0B"
      },
      "id": "1"
    },
    {
      "type": "Feature",
      "geometry": {
        "type": "Polygon",
        "coordinates": [
          [
            [
              77.6308356,
              12.989675
            ],
            [
              77.6310219,
              12.9887424
            ],
            [
              77.6328093,
              12.9891206
            ],
            [
              77.6337572,
              12.9872031
            ],
            [
              77.6367899,
              12.9874328
            ],
            [
              77.63625,
              12.9857817
            ],
            [
              77.634616,
              12.9842142
            ],
            [
              77.6348086,
              12.9824674
            ],
            [
              77.6374062,
              12.9828658
            ],
            [
              77.6379003,
              12.9799742
            ],
            [
              77.6407756,
              12.9800127
            ],
            [
              77.6412253,
              12.9702237
            ],
            [
              77.6474426,
              12.9704473
            ],
            [
              77.6477581,
              12.9688722
            ],
            [
              77.6504281,
              12.9684181
            ],
            [
              77.650906,
              12.9700104
            ],
            [
              77.6506997,
              12.9724951
            ],
            [
              77.6488755,
              12.9724688
            ],
            [
              77.6469663,
              12.9731241
            ],
            [
              77.6468472,
              12.9750175
            ],
            [
              77.6479294,
              12.975064
            ],
            [
              77.6513373,
              12.973571
            ],
            [
              77.6517672,
              12.975684
            ],
            [
              77.652595,
              12.9762556
            ],
            [
              77.6542369,
              12.9757445
            ],
            [
              77.6557592,
              12.9739219
            ],
            [
              77.6561607,
              12.9754871
            ],
            [
              77.6508465,
              12.9811179
            ],
            [
              77.6484162,
              12.9851865
            ],
            [
              77.6479347,
              12.9868514
            ],
            [
              77.6424363,
              12.9847637
            ],
            [
              77.6435489,
              12.9915446
            ],
            [
              77.6317832,
              12.9938145
            ],
            [
              77.6308356,
              12.989675
            ]
          ]
        ]
      },
      "properties": {
        "bbox_west": 77.6308356,
        "bbox_south": 12.9684181,
        "bbox_east": 77.6567723,
        "bbox_north": 12.9938145,
        "place_id": 423887353,
        "osm_type": "relation",
        "osm_id": 19883335,
        "lat": 12.9810684,
        "lon": 77.6443636,
        "class": "boundary",
        "type": "administrative",
        "place_rank": 20,
        "importance": 0.1334042778667887,
        "addresstype": "suburb",
        "name": "Indiranagar, Bengaluru",
        "display_name": "Indiranagar, Bengaluru Central City Corporation, Bengaluru, Bangalore North, Bengaluru Urban, Karnataka, 560102, India",
        "id": "indiranagar",
        "zoneId": "Z1",
        "risk": "MODERATE",
        "risk_color": "#0891B2",
        "load": 71,
        "headroom": 29,
        "evDensity": 68,
        "growth": 18,
        "score": 75,
        "fillColor": "#0891B2",
        "lineColor": "#0891B2"
      },
      "id": "2"
    },
    {
      "type": "Feature",
      "geometry": {
        "type": "Polygon",
        "coordinates": [
          [
            [
              77.6471775,
              12.8492151
            ],
            [
              77.6474957,
              12.8483382
            ],
            [
              77.6488907,
              12.8482126
            ],
            [
              77.6492397,
              12.8489378
            ],
            [
              77.6471775,
              12.8492151
            ]
          ]
        ]
      },
      "properties": {
        "bbox_west": 77.6471775,
        "bbox_south": 12.8482126,
        "bbox_east": 77.6504105,
        "bbox_north": 12.849377,
        "place_id": 261785159,
        "osm_type": "way",
        "osm_id": 287685707,
        "lat": 12.8487599,
        "lon": 77.648253,
        "class": "landuse",
        "type": "residential",
        "place_rank": 24,
        "importance": 0.08004832761120009,
        "addresstype": "residential",
        "name": "Electronic City, Bengaluru",
        "display_name": "Prime City Apartments, Electronic City, Bengaluru, Bangalore South, Bengaluru Urban, Karnataka, 560100, India",
        "id": "electronic-city",
        "zoneId": "Z11",
        "risk": "LOW",
        "risk_color": "#10B981",
        "load": 58,
        "headroom": 42,
        "evDensity": 52,
        "growth": 31,
        "score": 71,
        "fillColor": "#10B981",
        "lineColor": "#10B981"
      },
      "id": "3"
    },
    {
      "type": "Feature",
      "geometry": {
        "type": "Polygon",
        "coordinates": [
          [
            [
              77.6896353,
              12.9554204
            ],
            [
              77.6909683,
              12.9539778
            ],
            [
              77.6910094,
              12.9510579
            ],
            [
              77.6926358,
              12.9499306
            ],
            [
              77.6924039,
              12.9470597
            ],
            [
              77.6935456,
              12.9462726
            ],
            [
              77.6962402,
              12.9456404
            ],
            [
              77.6963622,
              12.9490963
            ],
            [
              77.6974433,
              12.9486694
            ],
            [
              77.6982304,
              12.9530206
            ],
            [
              77.6980532,
              12.9543357
            ],
            [
              77.7002109,
              12.9534352
            ],
            [
              77.7043326,
              12.9530927
            ],
            [
              77.7050279,
              12.9538797
            ],
            [
              77.7046729,
              12.9566705
            ],
            [
              77.6992622,
              12.9570756
            ],
            [
              77.6896353,
              12.9554204
            ]
          ]
        ]
      },
      "properties": {
        "bbox_west": 77.6896353,
        "bbox_south": 12.9456404,
        "bbox_east": 77.7050279,
        "bbox_north": 12.9570756,
        "place_id": 434940606,
        "osm_type": "relation",
        "osm_id": 19884550,
        "lat": 12.9552572,
        "lon": 77.6984163,
        "class": "boundary",
        "type": "administrative",
        "place_rank": 20,
        "importance": 0.14673761120012202,
        "addresstype": "suburb",
        "name": "Marathahalli, Bengaluru",
        "display_name": "Marathahalli, Bengaluru East City Corporation, Bengaluru, Bangalore East, Bengaluru Urban, Karnataka, India",
        "id": "marathahalli",
        "zoneId": "Z5",
        "risk": "LOW",
        "risk_color": "#10B981",
        "load": 52,
        "headroom": 48,
        "evDensity": 44,
        "growth": 19,
        "score": 63,
        "fillColor": "#10B981",
        "lineColor": "#10B981"
      },
      "id": "4"
    }
  ]
}